{
  "type": "FeatureCollection",
  "features": [
    {
      "type": "Feature",
      "properties": {
        "id": "tonga-domestic-cable-extension-tdce",
        "name": "Tonga Domestic Cable Extension (TDCE)",
        "color": "#e11e25",
        "feature_id": "tonga-domestic-cable-extension-tdce-0",
        "coordinates": [
          -174.933639039813,
          -19.72491637033035
        ]
      },
      "geometry": {
        "type": "MultiLineString",
        "coordinates": [
          [
            [
              -174.93730183683402,
              -19.729525450021
            ],
            [
              -174.59980207592204,
              -19.729525450021
            ],
            [
              -174.35214225136664,
              -19.81379624685291
            ]
          ],
          [
            [
              -173.98368251298305,
              -18.647678684858587
            ],
            [
              -174.2623023150101,
              -18.880139975101173
            ],
            [
              -174.93730183683402,
              -19.729525450021
            ],
            [
              -175.16230167744206,
              -20.574419057276128
            ],
            [
              -175.20000165073512,
              -21.133465659292966
            ]
          ]
        ]
      }
    },
    {
      "type": "Feature",
      "properties": {
        "id": "tonga-cable",
        "name": "Tonga Cable",
        "color": "#42b549",
        "feature_id": "tonga-cable-0",
        "coordinates": [
          -177.62282479346842,
          -20.297109438335415
        ]
      },
      "geometry": {
        "type": "MultiLineString",
        "coordinates": [
          [
            [
              -179.99979825051412,
              -19.305384072361306
            ],
            [
              -175.9498011195701,
              -20.995131543025785
            ],
            [
              -175.20000165073512,
              -21.133465659292966
            ]
          ],
          [
            [
              179.9999603175593,
              -19.305384072361306
            ],
            [
              179.09996095512733,
              -18.66711083815884
            ],
            [
              178.43744782917764,
              -18.123810943537187
            ]
          ]
        ]
      }
    }
  ]
}
